ORBCOMM FM115           
1 41186U 15081H   25014.51946792  .00001277  00000+0  28712-3 0  9999
2 41186  46.9996  50.1330 0000802 322.7218  37.3613 14.61948088485281
ORBCOMM FM108           
1 41187U 15081J   25014.66371987  .00001607  00000+0  38577-3 0  9991
2 41187  47.0047 111.7525 0003284 302.9193  57.1376 14.57651038484398
ORBCOMM FM117           
1 41188U 15081K   25014.63023755  .00001576  00000+0  37842-3 0  9995
2 41188  47.0010 110.7271 0003342 307.8139  52.2443 14.57725996484436
ORBCOMM FM116           
1 41189U 15081L   25014.82620910  .00000742  00000+0  19805-3 0  9996
2 41189  47.0004 199.6541 0001030  79.7009 280.3992 14.57649391483277
